{"type": "FeatureCollection", "features": [ {"type": "Feature", "properties": {"norad_id": 67224, "name": "ELECTRON R/B", "group": "last-30-days", "lat": 22.518035046658326, "lon": -38.29010545210792, "alt_km": 364.03419329374356, "timestamp": "2025-12-22T09:53:36.148415+00:00", "meta": {"OBJECT_NAME": "ELECTRON R/B", "OBJECT_ID": "2025-305F", "EPOCH": "2025-12-18T18:27:13.126752", "MEAN_MOTION": 15.64663678, "ECCENTRICITY": 0.0262888, "INCLINATION": 45.0188, "RA_OF_ASC_NODE": 318.3021, "ARG_OF_PERICENTER": 280.1207, "MEAN_ANOMALY": 77.0133, "EPHEMERIS_TYPE": 0, "CLASSIFICATION_TYPE": "U", "NORAD_CAT_ID": 67224, "ELEMENT_SET_NO": 999, "REV_AT_EPOCH": 9, "BSTAR": 0.00022935, "MEAN_MOTION_DOT": 0.00172783, "MEAN_MOTION_DDOT": 8.6369e-06}, "tle": {"line1": "1 67224U 25305F   25352.76890193  .00172783  86369-5  22935-3 0  9995", "line2": "2 67224  45.0188 318.3021 0262888 280.1207  77.0133 15.64663678    93"}}, "geometry": {"type": "Point", "coordinates": [-38.29010545210792, 22.518035046658326]}}, {"type": "Feature", "properties": {"norad_id": 67226, "name": "TJS-23", "group": "last-30-days", "lat": -6.0883492511745425, "lon": -82.58431004847742, "alt_km": 35008.01597716054, "timestamp": "2025-12-22T09:53:36.148426+00:00", "meta": {"OBJECT_NAME": "TJS-23", "OBJECT_ID": "2025-306A", "EPOCH": "2025-12-21T08:24:49.367232", "MEAN_MOTION": 1.72705756, "ECCENTRICITY": 0.7754041, "INCLINATION": 16.401, "RA_OF_ASC_NODE": 298.8861, "ARG_OF_PERICENTER": 179.8382, "MEAN_ANOMALY": 143.9016, "EPHEMERIS_TYPE": 0, "CLASSIFICATION_TYPE": "U", "NORAD_CAT_ID": 67226, "ELEMENT_SET_NO": 999, "REV_AT_EPOCH": 2, "BSTAR": 0.00071636, "MEAN_MOTION_DOT": 3.331e-05, "MEAN_MOTION_DDOT": 0}, "tle": {"line1": "1 67226U 25306A   25355.35057138  .00003331  00000+0  71636-3 0  9996", "line2": "2 67226  16.4010 298.8861 7754041 179.8382 143.9016  1.72705756    21"}}, "geometry": {"type": "Point", "coordinates": [-82.58431004847742, -6.0883492511745425]}}, {"type": "Feature", "properties": {"norad_id": 67227, "name": "CZ-5 R/B", "group": "last-30-days", "lat": 2.131801907497054, "lon": -54.32765645210904, "alt_km": 40373.56240243373, "timestamp": "2025-12-22T09:53:36.148439+00:00", "meta": {"OBJECT_NAME": "CZ-5 R/B", "OBJECT_ID": "2025-306B", "EPOCH": "2025-12-20T19:22:03.368352", "MEAN_MOTION": 1.92163474, "ECCENTRICITY": 0.75788222, "INCLINATION": 16.4229, "RA_OF_ASC_NODE": 298.9498, "ARG_OF_PERICENTER": 179.0262, "MEAN_ANOMALY": 184.9269, "EPHEMERIS_TYPE": 0, "CLASSIFICATION_TYPE": "U", "NORAD_CAT_ID": 67227, "ELEMENT_SET_NO": 999, "REV_AT_EPOCH": 2, "BSTAR": 0.00048545663, "MEAN_MOTION_DOT": 1.201e-05, "MEAN_MOTION_DDOT": 0}, "tle": {"line1": "1 67227U 25306B   25354.80698343  .00001201  00000+0  48546-3 0  9993", "line2": "2 67227  16.4229 298.9498 7578822 179.0262 184.9269  1.92163474    23"}}, "geometry": {"type": "Point", "coordinates": [-54.32765645210904, 2.131801907497054]}}, {"type": "Feature", "properties": {"norad_id": 67228, "name": "QPS-SAR-15", "group": "last-30-days", "lat": -39.240037064499575, "lon": 2.5219887600954114, "alt_km": 573.3824719669319, "timestamp": "2025-12-22T09:53:36.148454+00:00", "meta": {"OBJECT_NAME": "QPS-SAR-15", "OBJECT_ID": "2025-307A", "EPOCH": "2025-12-21T08:45:22.976928", "MEAN_MOTION": 14.96940801, "ECCENTRICITY": 0.0010016, "INCLINATION": 42.0068, "RA_OF_ASC_NODE": 123.0965, "ARG_OF_PERICENTER": 272.7947, "MEAN_ANOMALY": 87.1731, "EPHEMERIS_TYPE": 0, "CLASSIFICATION_TYPE": "U", "NORAD_CAT_ID": 67228, "ELEMENT_SET_NO": 999, "REV_AT_EPOCH": 1, "BSTAR": -0.00011342309, "MEAN_MOTION_DOT": -1.505e-05, "MEAN_MOTION_DDOT": 0}, "tle": {"line1": "1 67228U 25307A   25355.36484927 -.00001505  00000+0 -11342-3 0  9991", "line2": "2 67228  42.0068 123.0965 0010016 272.7947  87.1731 14.96940801    19"}}, "geometry": {"type": "Point", "coordinates": [2.5219887600954114, -39.240037064499575]}}, {"type": "Feature", "properties": {"norad_id": 67229, "name": "ELECTRON KICK STAGE R/B", "group": "last-30-days", "lat": 38.32368090374521, "lon": -124.64186321519752, "alt_km": 516.6236305643588, "timestamp": "2025-12-22T09:53:36.148464+00:00", "meta": {"OBJECT_NAME": "ELECTRON KICK STAGE R/B", "OBJECT_ID": "2025-307B", "EPOCH": "2025-12-21T08:41:51.108576", "MEAN_MOTION": 15.52867797, "ECCENTRICITY": 0.02558333, "INCLINATION": 41.9984, "RA_OF_ASC_NODE": 123.0965, "ARG_OF_PERICENTER": 237.1795, "MEAN_ANOMALY": 120.4177, "EPHEMERIS_TYPE": 0, "CLASSIFICATION_TYPE": "U", "NORAD_CAT_ID": 67229, "ELEMENT_SET_NO": 999, "REV_AT_EPOCH": 1, "BSTAR": 0.00022820983, "MEAN_MOTION_DOT": 0.00064668, "MEAN_MOTION_DDOT": 7.864022e-06}, "tle": {"line1": "1 67229U 25307B   25355.36239709  .00064668  78640-5  22821-3 0  9990", "line2": "2 67229  41.9984 123.0965 0255833 237.1795 120.4177 15.52867797    19"}}, "geometry": {"type": "Point", "coordinates": [-124.64186321519752, 38.32368090374521]}}, {"type": "Feature", "properties": {"norad_id": 67230, "name": "ELECTRON R/B", "group": "last-30-days", "lat": 35.24101033010369, "lon": -114.97791069021297, "alt_km": 555.528701256746, "timestamp": "2025-12-22T09:53:36.148474+00:00", "meta": {"OBJECT_NAME": "ELECTRON R/B", "OBJECT_ID": "2025-307C", "EPOCH": "2025-12-21T08:41:59.140320", "MEAN_MOTION": 15.55087105, "ECCENTRICITY": 0.02614087, "INCLINATION": 41.982, "RA_OF_ASC_NODE": 123.1026, "ARG_OF_PERICENTER": 268.141, "MEAN_ANOMALY": 88.9482, "EPHEMERIS_TYPE": 0, "CLASSIFICATION_TYPE": "U", "NORAD_CAT_ID": 67230, "ELEMENT_SET_NO": 999, "REV_AT_EPOCH": 1, "BSTAR": 0.00020247584, "MEAN_MOTION_DOT": 0.00071881, "MEAN_MOTION_DDOT": 8.106877e-06}, "tle": {"line1": "1 67230U 25307C   25355.36249005  .00071881  81069-5  20248-3 0  9997", "line2": "2 67230  41.9820 123.1026 0261408 268.1410  88.9482 15.55087105    19"}}, "geometry": {"type": "Point", "coordinates": [-114.97791069021297, 35.24101033010369]}}]}